[{"OBJECT_NAME":"STARLINK-3990","OBJECT_ID":"2022-052AE","EPOCH":"2026-03-09T20:53:03.027552","MEAN_MOTION":15.08844583,"ECCENTRICITY":0.00012497,"INCLINATION":53.2165,"RA_OF_ASC_NODE":268.3106,"ARG_OF_PERICENTER":80.5521,"MEAN_ANOMALY":279.5612,"EPHEMERIS_TYPE":0,"CLASSIFICATION_TYPE":"U","NORAD_CAT_ID":52626,"ELEMENT_SET_NO":999,"REV_AT_EPOCH":21101,"BSTAR":-3.9336765e-5,"MEAN_MOTION_DOT":-9.14e-6,"MEAN_MOTION_DDOT":0},{"OBJECT_NAME":"LEMUR-2-AHMED-ASRAR","OBJECT_ID":"2024-149DN","EPOCH":"2026-03-09T17:35:01.338432","MEAN_MOTION":15.10376432,"ECCENTRICITY":0.00016334,"INCLINATION":97.7021,"RA_OF_ASC_NODE":152.9847,"ARG_OF_PERICENTER":18.5035,"MEAN_ANOMALY":341.6253,"EPHEMERIS_TYPE":0,"CLASSIFICATION_TYPE":"U","NORAD_CAT_ID":60576,"ELEMENT_SET_NO":999,"REV_AT_EPOCH":8554,"BSTAR":0.0007977347,"MEAN_MOTION_DOT":0.00013045,"MEAN_MOTION_DDOT":0}]
