STARLINK-3990           
1 52626U 22052AE  26068.87017392 -.00000914  00000+0 -39337-4 0  9995
2 52626  53.2165 268.3106 0001250  80.5521 279.5612 15.08844583211013
LEMUR-2-AHMED-ASRAR     
1 60576U 24149DN  26068.73265438  .00013045  00000+0  79773-3 0  9992
2 60576  97.7021 152.9847 0001633  18.5035 341.6253 15.10376432 85541
